{
  "type": "FeatureCollection",
  "features": [
    {
      "type": "Feature",
      "properties": {
        "norad_id": 28054,
        "name": "DMSP 5D-3 F16 (USA 172)",
        "group": "weather",
        "lat": 38.66609848178047,
        "lon": 0.35668752500510054,
        "alt_km": 841.2151949838408,
        "timestamp": "2025-12-16T03:53:26.700778+00:00",
        "meta_object_name": "DMSP 5D-3 F16 (USA 172)",
        "meta_object_id": "2003-048A",
        "meta_epoch": "2025-12-15T07:22:56.847360",
        "meta_mean_motion": 14.14425138,
        "meta_eccentricity": 0.00064142,
        "meta_inclination": 99.0045,
        "meta_ra_of_asc_node": 6.7849,
        "meta_arg_of_pericenter": 312.7854,
        "meta_mean_anomaly": 57.7675,
        "meta_ephemeris_type": 0,
        "meta_classification_type": "U",
        "meta_norad_cat_id": 28054,
        "meta_element_set_no": 999,
        "meta_rev_at_epoch": 14349,
        "meta_bstar": 0.00010012523,
        "meta_mean_motion_dot": 1.46e-06,
        "meta_mean_motion_ddot": 0,
        "tle_line1": "1 28054U 03048A   25349.30760240  .00000146  00000+0  10013-3 0  9997",
        "tle_line2": "2 28054  99.0045   6.7849 0006414 312.7854  57.7675 14.14425138143498"
      },
      "geometry": {
        "type": "Point",
        "coordinates": [
          0.35668752500510054,
          38.66609848178047
        ]
      }
    },
    {
      "type": "Feature",
      "properties": {
        "norad_id": 28912,
        "name": "METEOSAT-9 (MSG-2)",
        "group": "weather",
        "lat": 6.506973028608878,
        "lon": -170.52144219691556,
        "alt_km": 35775.490141301714,
        "timestamp": "2025-12-16T03:53:26.700828+00:00",
        "meta_object_name": "METEOSAT-9 (MSG-2)",
        "meta_object_id": "2005-049B",
        "meta_epoch": "2025-12-14T20:28:58.105920",
        "meta_mean_motion": 1.00277785,
        "meta_eccentricity": 0.00034635,
        "meta_inclination": 8.9443,
        "meta_ra_of_asc_node": 55.9576,
        "meta_arg_of_pericenter": 190.3474,
        "meta_mean_anomaly": 190.418,
        "meta_ephemeris_type": 0,
        "meta_classification_type": "U",
        "meta_norad_cat_id": 28912,
        "meta_element_set_no": 999,
        "meta_rev_at_epoch": 515,
        "meta_bstar": 0,
        "meta_mean_motion_dot": 1.37e-06,
        "meta_mean_motion_ddot": 0,
        "tle_line1": "1 28912U 05049B   25348.85345030  .00000137  00000+0  00000+0 0  9999",
        "tle_line2": "2 28912   8.9443  55.9576 0003463 190.3474 190.4180  1.00277785  5154"
      },
      "geometry": {
        "type": "Point",
        "coordinates": [
          -170.52144219691556,
          6.506973028608878
        ]
      }
    },
    {
      "type": "Feature",
      "properties": {
        "norad_id": 29522,
        "name": "DMSP 5D-3 F17 (USA 191)",
        "group": "weather",
        "lat": -14.212223404979072,
        "lon": -2.287379990265671,
        "alt_km": 851.6583713656955,
        "timestamp": "2025-12-16T03:53:26.700846+00:00",
        "meta_object_name": "DMSP 5D-3 F17 (USA 191)",
        "meta_object_id": "2006-050A",
        "meta_epoch": "2025-12-15T05:53:44.063232",
        "meta_mean_motion": 14.14920723,
        "meta_eccentricity": 0.00095089,
        "meta_inclination": 98.7393,
        "meta_ra_of_asc_node": 354.5826,
        "meta_arg_of_pericenter": 217.1641,
        "meta_mean_anomaly": 142.8875,
        "meta_ephemeris_type": 0,
        "meta_classification_type": "U",
        "meta_norad_cat_id": 29522,
        "meta_element_set_no": 999,
        "meta_rev_at_epoch": 98640,
        "meta_bstar": 0.00011827011,
        "meta_mean_motion_dot": 1.85e-06,
        "meta_mean_motion_ddot": 0,
        "tle_line1": "1 29522U 06050A   25349.24564888  .00000185  00000+0  11827-3 0  9994",
        "tle_line2": "2 29522  98.7393 354.5826 0009508 217.1641 142.8875 14.14920723986403"
      },
      "geometry": {
        "type": "Point",
        "coordinates": [
          -2.287379990265671,
          -14.212223404979072
        ]
      }
    },
    {
      "type": "Feature",
      "properties": {
        "norad_id": 32958,
        "name": "FENGYUN 3A",
        "group": "weather",
        "lat": 62.462321538923604,
        "lon": 126.63245997755047,
        "alt_km": 826.4878123726885,
        "timestamp": "2025-12-16T03:53:26.700864+00:00",
        "meta_object_name": "FENGYUN 3A",
        "meta_object_id": "2008-026A",
        "meta_epoch": "2025-12-15T08:44:11.760000",
        "meta_mean_motion": 14.19515493,
        "meta_eccentricity": 0.00078075,
        "meta_inclination": 98.6699,
        "meta_ra_of_asc_node": 288.8355,
        "meta_arg_of_pericenter": 302.1642,
        "meta_mean_anomaly": 57.8777,
        "meta_ephemeris_type": 0,
        "meta_classification_type": "U",
        "meta_norad_cat_id": 32958,
        "meta_element_set_no": 999,
        "meta_rev_at_epoch": 90932,
        "meta_bstar": 7.658007e-05,
        "meta_mean_motion_dot": 1.18e-06,
        "meta_mean_motion_ddot": 0,
        "tle_line1": "1 32958U 08026A   25349.36402500  .00000118  00000+0  76580-4 0  9995",
        "tle_line2": "2 32958  98.6699 288.8355 0007807 302.1642  57.8777 14.19515493909321"
      },
      "geometry": {
        "type": "Point",
        "coordinates": [
          126.63245997755047,
          62.462321538923604
        ]
      }
    },
    {
      "type": "Feature",
      "properties": {
        "norad_id": 35491,
        "name": "GOES 14",
        "group": "weather",
        "lat": -0.9590165765961514,
        "lon": 31.501499502836793,
        "alt_km": 35837.340324751414,
        "timestamp": "2025-12-16T03:53:26.700880+00:00",
        "meta_object_name": "GOES 14",
        "meta_object_id": "2009-033A",
        "meta_epoch": "2025-12-15T07:53:38.605056",
        "meta_mean_motion": 1.0009647,
        "meta_eccentricity": 6.158e-05,
        "meta_inclination": 1.2094,
        "meta_ra_of_asc_node": 85.3721,
        "meta_arg_of_pericenter": 168.3224,
        "meta_mean_anomaly": 197.5601,
        "meta_ephemeris_type": 0,
        "meta_classification_type": "U",
        "meta_norad_cat_id": 35491,
        "meta_element_set_no": 999,
        "meta_rev_at_epoch": 475,
        "meta_bstar": 0,
        "meta_mean_motion_dot": -1e-08,
        "meta_mean_motion_ddot": 0,
        "tle_line1": "1 35491U 09033A   25349.32891904 -.00000001  00000+0  00000+0 0  9996",
        "tle_line2": "2 35491   1.2094  85.3721 0000615 168.3224 197.5601  1.00096470  4756"
      },
      "geometry": {
        "type": "Point",
        "coordinates": [
          31.501499502836793,
          -0.9590165765961514
        ]
      }
    },
    {
      "type": "Feature",
      "properties": {
        "norad_id": 35951,
        "name": "DMSP 5D-3 F18 (USA 210)",
        "group": "weather",
        "lat": -30.982485745886578,
        "lon": 141.15709717773294,
        "alt_km": 857.0594579802109,
        "timestamp": "2025-12-16T03:53:26.700892+00:00",
        "meta_object_name": "DMSP 5D-3 F18 (USA 210)",
        "meta_object_id": "2009-057A",
        "meta_epoch": "2025-12-15T06:31:40.265184",
        "meta_mean_motion": 14.14770702,
        "meta_eccentricity": 0.00120072,
        "meta_inclination": 98.8836,
        "meta_ra_of_asc_node": 325.6601,
        "meta_arg_of_pericenter": 56.1241,
        "meta_mean_anomaly": 304.1073,
        "meta_ephemeris_type": 0,
        "meta_classification_type": "U",
        "meta_norad_cat_id": 35951,
        "meta_element_set_no": 999,
        "meta_rev_at_epoch": 83358,
        "meta_bstar": 0.00017774329,
        "meta_mean_motion_dot": 2.98e-06,
        "meta_mean_motion_ddot": 0,
        "tle_line1": "1 35951U 09057A   25349.27199381  .00000298  00000+0  17774-3 0  9994",
        "tle_line2": "2 35951  98.8836 325.6601 0012007  56.1241 304.1073 14.14770702833587"
      },
      "geometry": {
        "type": "Point",
        "coordinates": [
          141.15709717773294,
          -30.982485745886578
        ]
      }
    },
    {
      "type": "Feature",
      "properties": {
        "norad_id": 36411,
        "name": "EWS-G2 (GOES 15)",
        "group": "weather",
        "lat": 0.7035427968864835,
        "lon": -155.25863089020118,
        "alt_km": 35773.49282166752,
        "timestamp": "2025-12-16T03:53:26.700906+00:00",
        "meta_object_name": "EWS-G2 (GOES 15)",
        "meta_object_id": "2010-008A",
        "meta_epoch": "2025-12-15T05:07:10.727904",
        "meta_mean_motion": 1.00270391,
        "meta_eccentricity": 0.00055899,
        "meta_inclination": 0.8199,
        "meta_ra_of_asc_node": 86.0739,
        "meta_arg_of_pericenter": 175.9178,
        "meta_mean_anomaly": 320.3138,
        "meta_ephemeris_type": 0,
        "meta_classification_type": "U",
        "meta_norad_cat_id": 36411,
        "meta_element_set_no": 999,
        "meta_rev_at_epoch": 5779,
        "meta_bstar": 0,
        "meta_mean_motion_dot": 5.9e-07,
        "meta_mean_motion_ddot": 0,
        "tle_line1": "1 36411U 10008A   25349.21331861  .00000059  00000+0  00000+0 0  9994",
        "tle_line2": "2 36411   0.8199  86.0739 0005589 175.9178 320.3138  1.00270391 57793"
      },
      "geometry": {
        "type": "Point",
        "coordinates": [
          -155.25863089020118,
          0.7035427968864835
        ]
      }
    }
  ]
}